[Satellite]
VERSION=1.1
NAME=COSMOS 2436 (723)
NICKNAME=COSMOS 2436 (723)
TLE1=1 32395U 07065C   18018.80609420 -.00000005  00000-0  10000-3 0  9997
TLE2=2 32395  64.9788 296.6800 0016244 356.9081  83.9148  2.13104197 78282
